SHIYAN-24C 03           
1 58652U 23206C   26068.89147317  .00001350  00000+0  11928-3 0  9993
2 58652  97.3969  41.7507 0002411  66.6237 293.5240 14.97896938120432
STARLINK-35688          
1 67019U 25293S   26068.49485089  .00004383  00000+0  37488-3 0  9993
2 67019  70.0001  95.1480 0003526 267.3625  92.7131 14.98331404 14855
